NORAD_CAT_ID,OBJECT_NAME,OBJECT_TYPE,EPOCH,MEAN_MOTION,ECCENTRICITY,INCLINATION,RA_OF_ASC_NODE,ARG_OF_PERICENTER,MEAN_ANOMALY,BSTAR,MEAN_MOTION_DOT,MEAN_MOTION_DDOT,TLE_LINE0,TLE_LINE1,TLE_LINE2,SEMIMAJOR_AXIS,PERIOD,APOGEE,PERIGEE,DECAYED
53176.0,STARLINK-4294,PAYLOAD,2024-02-29 17:15:45,15.08869193,0.0001409,53.2151,226.3974,75.5161,284.5988,0.00062448,9.672e-05,0.0,0 STARLINK-4294,1 53176U 22083AW  24060.71928082  .00009672  00000-0  62448-3 0  9997,2 53176  53.2151 226.3974 0001409  75.5161 284.5988 15.08869193 90006,6917.791,95.436,540.631,538.681,0.0
53176.0,STARLINK-4294,PAYLOAD,2024-03-01 10:45:00,15.08855907,0.000173,53.2171,223.127,87.3086,272.8104,0.0001299,1.781e-05,0.0,0 STARLINK-4294,1 53176U 22083AW  24061.44791691  .00001781  00000-0  12990-3 0  9992,2 53176  53.2171 223.1270 0001730  87.3086 272.8104 15.08855907 90756,6917.832,95.437,540.894,538.5,0.0
53176.0,STARLINK-4294,PAYLOAD,2024-03-01 17:06:32,15.08852226,0.0001542,53.2167,221.9352,93.7729,266.344,3.6172e-05,2.88e-06,0.0,0 STARLINK-4294,1 53176U 22083AW  24061.71287575  .00000288  00000-0  36172-4 0  9993,2 53176  53.2167 221.9352 0001542  93.7729 266.3440 15.08852226 90150,6917.843,95.437,540.775,538.641,0.0
53176.0,STARLINK-4294,PAYLOAD,2024-03-02 13:46:33,15.08845182,0.0001619,53.2166,218.0712,88.6251,271.4927,-1.6288e-05,-5.47e-06,0.0,0 STARLINK-4294,1 53176U 22083AW  24062.57399684 -.00000547  00000-0 -16288-4 0  9999,2 53176  53.2166 218.0712 0001619  88.6251 271.4927 15.08845182 90288,6917.865,95.437,540.85,538.61,0.0
53176.0,STARLINK-4294,PAYLOAD,2024-03-02 15:21:56,15.08846694,0.0001639,53.2168,217.7737,88.5281,271.5899,-3.9982e-05,-9.24e-06,0.0,0 STARLINK-4294,1 53176U 22083AW  24062.64023674 -.00000924  00000-0 -39982-4 0  9995,2 53176  53.2168 217.7737 0001639  88.5281 271.5899 15.08846694 90937,6917.86,95.437,540.859,538.591,0.0
53176.0,STARLINK-4294,PAYLOAD,2024-03-03 10:26:34,15.08838496,0.0001442,53.2157,214.2051,88.4239,271.6919,7.9361e-05,9.75e-06,0.0,0 STARLINK-4294,1 53176U 22083AW  24063.43512051  .00000975  00000-0  79361-4 0  9994,2 53176  53.2157 214.2051 0001442  88.4239 271.6919 15.08838496 91059,6917.885,95.438,540.748,538.752,0.0
53176.0,STARLINK-4294,PAYLOAD,2024-03-03 15:12:43,15.08838133,0.0001406,53.2169,213.3132,89.7858,270.3295,6.4282e-05,7.35e-06,0.0,0 STARLINK-4294,1 53176U 22083AW  24063.63384124  .00000735  00000-0  64282-4 0  9994,2 53176  53.2169 213.3132 0001406  89.7858 270.3295 15.08838133 90446,6917.886,95.438,540.724,538.778,0.0
53176.0,STARLINK-4294,PAYLOAD,2024-03-03 16:48:06,15.0883978,0.00014,53.217,213.0157,89.2644,270.8509,5.0391e-05,5.14e-06,0.0,0 STARLINK-4294,1 53176U 22083AW  24063.70008025  .00000514  00000-0  50391-4 0  9996,2 53176  53.2170 213.0157 0001400  89.2644 270.8509 15.08839780 90457,6917.881,95.438,540.715,538.778,0.0
53176.0,STARLINK-4294,PAYLOAD,2024-03-04 13:28:06,15.08848733,0.0001319,53.2172,209.1494,92.2615,267.8528,0.00019229,2.774e-05,0.0,0 STARLINK-4294,1 53176U 22083AW  24064.56118899  .00002774  00000-0  19229-3 0  9996,2 53176  53.2172 209.1494 0001319  92.2615 267.8528 15.08848733 90589,6917.854,95.437,540.631,538.806,0.0
53176.0,STARLINK-4294,PAYLOAD,2024-03-04 16:38:52,15.08855635,0.0001484,53.217,208.5592,102.5323,257.5835,0.00028947,4.324e-05,0.0,0 STARLINK-4294,1 53176U 22083AW  24064.69366773  .00004324  00000-0  28947-3 0  9996,2 53176  53.2170 208.5592 0001484 102.5323 257.5835 15.08855635 91243,6917.833,95.437,540.724,538.671,0.0
53176.0,STARLINK-4294,PAYLOAD,2024-03-05 14:54:18,15.0883241,0.0001292,53.2162,204.3939,87.2822,272.8318,-4.2371e-05,-9.62e-06,0.0,0 STARLINK-4294,1 53176U 22083AW  24065.62104253 -.00000962  00000-0 -42371-4 0  9997,2 53176  53.2162 204.3939 0001292  87.2822 272.8318 15.08832410 90749,6917.904,95.438,540.662,538.875,0.0
53176.0,STARLINK-4294,PAYLOAD,2024-03-05 16:29:40,15.08825798,0.0001466,53.2148,204.0961,95.475,264.6409,-0.00021195,-3.658e-05,0.0,0 STARLINK-4294,1 53176U 22083AW  24065.68727671 -.00003658  00000-0 -21195-3 0  9993,2 53176  53.2148 204.0961 0001466  95.4750 264.6409 15.08825798 91392,6917.924,95.438,540.803,538.775,0.0
53176.0,STARLINK-4294,PAYLOAD,2024-03-06 13:09:42,15.08826503,0.0001562,53.2165,200.2333,113.0176,247.098,-0.00017459,-3.064e-05,0.0,0 STARLINK-4294,1 53176U 22083AW  24066.54841189 -.00003064  00000-0 -17459-3 0  9999,2 53176  53.2165 200.2333 0001562 113.0176 247.0980 15.08826503 90885,6917.922,95.438,540.867,538.706,0.0
53176.0,STARLINK-4294,PAYLOAD,2024-03-06 16:20:29,15.08820269,0.0001211,53.2152,199.6357,100.8089,259.3039,-0.00026112,-4.439e-05,0.0,0 STARLINK-4294,1 53176U 22083AW  24066.68089648 -.00004439  00000-0 -26112-3 0  9991,2 53176  53.2152 199.6357 0001211 100.8089 259.3039 15.08820269 91544,6917.941,95.439,540.643,538.968,0.0
53176.0,STARLINK-4294,PAYLOAD,2024-03-07 14:35:53,15.08834283,0.0001425,53.2163,195.4738,100.4892,259.6261,0.00032385,4.869e-05,0.0,0 STARLINK-4294,1 53176U 22083AW  24067.60826305  .00004869  00000-0  32385-3 0  9997,2 53176  53.2163 195.4738 0001425 100.4892 259.6261 15.08834283 91044,6917.898,95.438,540.749,538.777,0.0
53176.0,STARLINK-4294,PAYLOAD,2024-03-08 14:26:39,15.08856622,0.0001325,53.2168,191.0093,98.7387,261.3755,0.00060752,9.398e-05,0.0,0 STARLINK-4294,1 53176U 22083AW  24068.60185174  .00009398  00000-0  60752-3 0  9991,2 53176  53.2168 191.0093 0001325  98.7387 261.3755 15.08856622 91197,6917.83,95.437,540.611,538.778,0.0
53176.0,STARLINK-4294,PAYLOAD,2024-03-09 11:06:40,15.0884405,0.000101,53.2158,187.1443,123.5384,236.5705,0.0001919,2.768e-05,0.0,0 STARLINK-4294,1 53176U 22083AW  24069.46297155  .00002768  00000-0  19190-3 0  9993,2 53176  53.2158 187.1443 0001010 123.5384 236.5705 15.08844050 91962,6917.868,95.437,540.432,539.034,0.0
53176.0,STARLINK-4294,PAYLOAD,2024-03-09 14:17:26,15.08851762,0.0001093,53.2184,186.5501,99.3358,260.7758,9.9185e-05,1.292e-05,0.0,0 STARLINK-4294,1 53176U 22083AW  24069.59544991  .00001292  00000-0  99185-4 0  9994,2 53176  53.2184 186.5501 0001093  99.3358 260.7758 15.08851762 91348,6917.844,95.437,540.466,538.953,0.0
53176.0,STARLINK-4294,PAYLOAD,2024-03-09 17:28:12,15.08854108,0.0001249,53.2164,185.9541,108.7726,251.3402,2.4633e-05,1.04e-06,0.0,0 STARLINK-4294,1 53176U 22083AW  24069.72792430  .00000104  00000-0  24633-4 0  9999,2 53176  53.2164 185.9541 0001249 108.7726 251.3402 15.08854108 92003,6917.837,95.437,540.566,538.838,0.0
53176.0,STARLINK-4294,PAYLOAD,2024-03-10 12:32:50,15.08838466,0.0001861,53.2173,182.3841,108.1977,251.9218,3.3994e-06,-2.34e-06,0.0,0 STARLINK-4294,1 53176U 22083AW  24070.52281065 -.00000234  00000-0  33994-5 0  9992,2 53176  53.2173 182.3841 0001861 108.1977 251.9218 15.08838466 92122,6917.885,95.438,541.037,538.463,0.0
53176.0,STARLINK-4294,PAYLOAD,2024-03-10 14:08:13,15.08841324,0.0001518,53.2165,182.089,95.3155,264.8011,3.9417e-05,3.39e-06,0.0,0 STARLINK-4294,1 53176U 22083AW  24070.58904987  .00000339  00000-0  39417-4 0  9993,2 53176  53.2165 182.0890 0001518  95.3155 264.8011 15.08841324 91498,6917.876,95.437,540.791,538.691,0.0
53176.0,STARLINK-4294,PAYLOAD,2024-03-10 17:19:00,15.08843093,5.59e-05,53.217,181.4927,78.7936,281.3119,0.00013372,1.841e-05,0.0,0 STARLINK-4294,1 53176U 22083AW  24070.72152833  .00001841  00000-0  13372-3 0  9994,2 53176  53.2170 181.4927 0000559  78.7936 281.3119 15.08843093 91515,6917.871,95.437,540.123,539.349,0.0
53176.0,STARLINK-4294,PAYLOAD,2024-03-11 12:23:37,15.08859086,0.0001531,53.2167,177.9252,94.2303,265.8864,0.00047331,7.257e-05,0.0,0 STARLINK-4294,1 53176U 22083AW  24071.51640163  .00007257  00000-0  47331-3 0  9999,2 53176  53.2167 177.9252 0001531  94.2303 265.8864 15.08859086 92271,6917.822,95.436,540.746,538.628,0.0
53176.0,STARLINK-4294,PAYLOAD,2024-03-11 13:59:00,15.08862487,0.0001416,53.2144,177.6302,93.8659,266.2495,0.00059776,9.244e-05,0.0,0 STARLINK-4294,1 53176U 22083AW  24071.58264018  .00009244  00000-0  59776-3 0  9991,2 53176  53.2144 177.6302 0001416  93.8659 266.2495 15.08862487 91644,6917.812,95.436,540.656,538.697,0.0
53176.0,STARLINK-4294,PAYLOAD,2024-03-12 13:49:47,15.08839634,0.0001327,53.2166,173.1692,99.5412,260.5731,-3.1731e-05,-7.93e-06,0.0,0 STARLINK-4294,1 53176U 22083AW  24072.57624491 -.00000793  00000-0 -31731-4 0  9990,2 53176  53.2166 173.1692 0001327  99.5412 260.5731 15.08839634 92438,6917.882,95.438,540.665,538.829,0.0
53176.0,STARLINK-4294,PAYLOAD,2024-03-13 10:29:48,15.0883758,0.0001472,53.2172,169.305,107.5407,252.5746,0.00020616,2.994e-05,0.0,0 STARLINK-4294,1 53176U 22083AW  24073.43736873  .00002994  00000-0  20616-3 0  9996,2 53176  53.2172 169.3050 0001472 107.5407 252.5746 15.08837580 91923,6917.888,95.438,540.771,538.734,0.0
53176.0,STARLINK-4294,PAYLOAD,2024-03-13 15:15:57,15.08847716,0.0001537,53.2172,168.4136,107.1657,252.9503,0.00036667,5.554e-05,0.0,0 STARLINK-4294,1 53176U 22083AW  24073.63608612  .00005554  00000-0  36667-3 0  9995,2 53176  53.2172 168.4136 0001537 107.1657 252.9503 15.08847716 92594,6917.857,95.437,540.785,538.659,0.0
53176.0,STARLINK-4294,PAYLOAD,2024-03-14 05:34:26,15.08845889,0.0001666,53.2175,165.738,109.0506,251.0667,0.00029187,4.361e-05,0.0,0 STARLINK-4294,1 53176U 22083AW  24074.23224682  .00004361  00000-0  29187-3 0  9997,2 53176  53.2175 165.7380 0001666 109.0506 251.0667 15.08845889 92045,6917.862,95.437,540.88,538.575,0.0
53176.0,STARLINK-4294,PAYLOAD,2024-03-14 11:55:58,15.08846075,0.0001596,53.2169,164.5479,105.961,254.1558,0.00025375,3.753e-05,0.0,0 STARLINK-4294,1 53176U 22083AW  24074.49720658  .00003753  00000-0  25375-3 0  9998,2 53176  53.2169 164.5479 0001596 105.9610 254.1558 15.08846075 92723,6917.862,95.437,540.831,538.623,0.0
53176.0,STARLINK-4294,PAYLOAD,2024-03-15 05:25:13,15.08839146,0.0001813,53.2161,161.2764,99.3741,260.7456,4.8667e-05,4.86e-06,0.0,0 STARLINK-4294,1 53176U 22083AW  24075.22584972  .00000486  00000-0  48667-4 0  9997,2 53176  53.2161 161.2764 0001813  99.3741 260.7456 15.08839146 92832,6917.883,95.438,541.002,538.494,0.0
